STARLINK-37235          
1 69154U 26111G   26169.66597964  .00042723  00000+0  77114-3 0  9992
2 69154  53.1607 146.4923 0001232  90.2846 269.8304 15.49341218  4469
STARLINK-37329          
1 69155U 26111H   26169.83335647 -.00066563  00000+0 -11980-2 0  9998
2 69155  53.1602 144.0121 0001763  90.9059 231.8055 15.49328804  5819
STARLINK-37345          
1 69156U 26111J   26169.83335647 -.02492103  00000+0 -46937-1 0  9993
2 69156  53.1601 143.9293 0000958  95.1286 268.2240 15.51364161  5810
STARLINK-37353          
1 69157U 26111K   26169.83335647 -.02462400  00000+0 -45699-1 0  9995
2 69157  53.1607 143.9159 0000923 107.3057 262.6110 15.51730187  5811
STARLINK-37363          
1 69158U 26111L   26169.83335647 -.02324154  00000+0 -42660-1 0  9994
2 69158  53.1601 143.9223 0001295 117.8126 248.7023 15.52416769  5810
STARLINK-37343          
1 69159U 26111M   26169.32218249  .00060434  00000+0  10867-2 0  9996
2 69159  53.1602 147.8935 0001478  83.5505 276.5673 15.49297321  4410
STARLINK-37328          
1 69160U 26111N   26169.83335647 -.02149324  00000+0 -39257-1 0  9999
2 69160  53.1605 143.8713 0000846 102.3598 289.0878 15.52264480  5810
STARLINK-37311          
1 69161U 26111P   26169.83335647 -.02442223  00000+0 -40547-1 0  9998
2 69161  53.1596 143.9146 0001001 111.6170 259.2800 15.55342438  5811
STARLINK-36286          
1 69162U 26111Q   26169.83335647  .00093333  00000+0  16685-2 0  9996
2 69162  53.1603 144.3571 0001885 109.1659  43.2595 15.49268461  5810
STARLINK-37196          
1 69163U 26111R   26169.83335647 -.02482831  00000+0 -39592-1 0  9997
2 69163  53.1591 143.9062 0000877 105.7011 269.2965 15.56488558  5811
STARLINK-36288          
1 69164U 26111S   26169.83335647  .00099351  00000+0  17738-2 0  9994
2 69164  53.1601 144.3278 0000977 120.4839  46.4172 15.49276170  5813
STARLINK-37445          
1 69165U 26111T   26169.83335647  .00075966  00000+0  13609-2 0  9994
2 69165  53.1603 144.4316 0000651  78.8694  36.6865 15.49303891  5815
STARLINK-37491          
1 69166U 26111U   26169.83335647  .00090195  00000+0  16156-2 0  9996
2 69166  53.1603 144.0923 0001027  87.9121 195.0116 15.49229453  5810
STARLINK-37474          
1 69167U 26111V   26169.83335647 -.01629546  00000+0 -24308-1 0  9995
2 69167  53.1595 143.9015 0000789 111.0354 266.2033 15.57362801  5815
STARLINK-37469          
1 69168U 26111W   26169.66159914  .00021358  00000+0  39082-3 0  9999
2 69168  53.1598 146.4588 0001645 103.5750 256.5442 15.49323071  4463
STARLINK-37515          
1 69169U 26111X   26169.83335647  .00079633  00000+0  14273-2 0  9991
2 69169  53.1602 144.1836 0000987  96.7929 140.5856 15.49268870  5816
STARLINK-37437          
1 69170U 26111Y   26169.83335647 -.00336371  00000+0 -62676-2 0  9990
2 69170  53.1602 143.9951 0000918  85.5162 244.7478 15.49472026  5819
STARLINK-37392          
1 69171U 26111Z   26169.83335647 -.01333198  00000+0 -25190-1 0  9995
2 69171  53.1606 144.0825 0000919  71.1804 215.3761 15.50827177  5813
STARLINK-37472          
1 69172U 26111AA  26169.83335647  .00082557  00000+0  14791-2 0  9999
2 69172  53.1593 144.6454 0000748 113.3632 254.7777 15.49264215  5811
STARLINK-37461          
1 69173U 26111AB  26169.65348219  .00028889  00000+0  52518-3 0  9997
2 69173  53.1602 146.4070 0001186  98.5657 261.5487 15.49329860  4467
STARLINK-37333          
1 69174U 26111AC  26169.83335647  .00074722  00000+0  13406-2 0  9998
2 69174  53.1604 144.3505 0000574  98.5164  56.3643 15.49270017  5816
STARLINK-37385          
1 69175U 26111AD  26169.32326587  .00024341  00000+0  44406-3 0  9993
2 69175  53.1603 147.9009 0000664  91.4846 268.6239 15.49327202  4416
STARLINK-37414          
1 69176U 26111AE  26169.83335647  .00094229  00000+0  16840-2 0  9999
2 69176  53.1602 144.1558 0001512 111.2950 138.7946 15.49273774  5815
STRIX-7                 
1 69177U 26112A   26169.76919200  .00001518  00000+0  13301-3 0  9995
2 69177  44.9069 184.1402 0023132  56.2604 304.0467 15.01440512  4111
SHENZHOU-23 (SZ-23)     
1 69180U 26113A   26169.57665716  .00018077  00000+0  21350-3 0  9990
2 69180  41.4698 313.5456 0007383  89.2734 270.8951 15.60863218293645
STARLINK-37380          
1 69182U 26114A   26169.61284640  .00166539  00000+0  94269-3 0  9997
2 69182  53.1571 195.3937 0000890  47.2064 312.9033 15.78095526  4998
STARLINK-37089          
1 69183U 26114B   26169.61191325  .00155849  00000+0  88384-3 0  9998
2 69183  53.1579 195.3878 0000998  50.1717 309.9392 15.78087761  4994
STARLINK-37428          
1 69184U 26114C   26169.80050273  .00328013  00000+0  18119-2 0  9999
2 69184  53.1571 194.4305 0000751  66.8111 293.2990 15.78170680  5028
STARLINK-37237          
1 69185U 26114D   26169.48108728  .00138732  00000+0  78929-3 0  9996
2 69185  53.1574 195.9922 0000940  77.1130 282.9997 15.78073057  4974
