OBJECT_NAME,OBJECT_ID,EPOCH,MEAN_MOTION,ECCENTRICITY,INCLINATION,RA_OF_ASC_NODE,ARG_OF_PERICENTER,MEAN_ANOMALY,EPHEMERIS_TYPE,CLASSIFICATION_TYPE,NORAD_CAT_ID,ELEMENT_SET_NO,REV_AT_EPOCH,BSTAR,MEAN_MOTION_DOT,MEAN_MOTION_DDOT
STARLINK-37235,2026-111G,2026-06-18T15:59:00.640896,15.49341218,.0001232,53.1607,146.4923,90.2846,269.8304,0,U,69154,999,446,.77114E-3,.42723E-3,0
STARLINK-37329,2026-111H,2026-06-18T20:00:01.999008,15.49328804,.0001763,53.1602,144.0121,90.9059,231.8055,0,U,69155,999,581,-.1198E-2,-.66563E-3,0
STARLINK-37345,2026-111J,2026-06-18T20:00:01.999008,15.51364161,.0000958,53.1601,143.9293,95.1286,268.2240,0,U,69156,999,581,-.46937E-1,-.2492103E-1,0
STARLINK-37353,2026-111K,2026-06-18T20:00:01.999008,15.51730187,.0000923,53.1607,143.9159,107.3057,262.6110,0,U,69157,999,581,-.45699E-1,-.24624E-1,0
STARLINK-37363,2026-111L,2026-06-18T20:00:01.999008,15.52416769,.0001295,53.1601,143.9223,117.8126,248.7023,0,U,69158,999,581,-.4266E-1,-.2324154E-1,0
STARLINK-37343,2026-111M,2026-06-18T07:43:56.567136,15.49297321,.0001478,53.1602,147.8935,83.5505,276.5673,0,U,69159,999,441,.10867E-2,.60434E-3,0
STARLINK-37328,2026-111N,2026-06-18T20:00:01.999008,15.52264480,.0000846,53.1605,143.8713,102.3598,289.0878,0,U,69160,999,581,-.39257E-1,-.2149324E-1,0
STARLINK-37311,2026-111P,2026-06-18T20:00:01.999008,15.55342438,.0001001,53.1596,143.9146,111.6170,259.2800,0,U,69161,999,581,-.40547E-1,-.2442223E-1,0
STARLINK-36286,2026-111Q,2026-06-18T20:00:01.999008,15.49268461,.0001885,53.1603,144.3571,109.1659,43.2595,0,U,69162,999,581,.16685E-2,.93333E-3,0
STARLINK-37196,2026-111R,2026-06-18T20:00:01.999008,15.56488558,.0000877,53.1591,143.9062,105.7011,269.2965,0,U,69163,999,581,-.39592E-1,-.2482831E-1,0
STARLINK-36288,2026-111S,2026-06-18T20:00:01.999008,15.49276170,.0000977,53.1601,144.3278,120.4839,46.4172,0,U,69164,999,581,.17738E-2,.99351E-3,0
STARLINK-37445,2026-111T,2026-06-18T20:00:01.999008,15.49303891,.0000651,53.1603,144.4316,78.8694,36.6865,0,U,69165,999,581,.13609E-2,.75966E-3,0
STARLINK-37491,2026-111U,2026-06-18T20:00:01.999008,15.49229453,.0001027,53.1603,144.0923,87.9121,195.0116,0,U,69166,999,581,.16156E-2,.90195E-3,0
STARLINK-37474,2026-111V,2026-06-18T20:00:01.999008,15.57362801,.0000789,53.1595,143.9015,111.0354,266.2033,0,U,69167,999,581,-.24308E-1,-.1629546E-1,0
STARLINK-37469,2026-111W,2026-06-18T15:52:42.165696,15.49323071,.0001645,53.1598,146.4588,103.5750,256.5442,0,U,69168,999,446,.39082E-3,.21358E-3,0
STARLINK-37515,2026-111X,2026-06-18T20:00:01.999008,15.49268870,.0000987,53.1602,144.1836,96.7929,140.5856,0,U,69169,999,581,.14273E-2,.79633E-3,0
STARLINK-37437,2026-111Y,2026-06-18T20:00:01.999008,15.49472026,.0000918,53.1602,143.9951,85.5162,244.7478,0,U,69170,999,581,-.62676E-2,-.336371E-2,0
STARLINK-37392,2026-111Z,2026-06-18T20:00:01.999008,15.50827177,.0000919,53.1606,144.0825,71.1804,215.3761,0,U,69171,999,581,-.2519E-1,-.1333198E-1,0
STARLINK-37472,2026-111AA,2026-06-18T20:00:01.999008,15.49264215,.0000748,53.1593,144.6454,113.3632,254.7777,0,U,69172,999,581,.14791E-2,.82557E-3,0
STARLINK-37461,2026-111AB,2026-06-18T15:41:00.861216,15.49329860,.0001186,53.1602,146.4070,98.5657,261.5487,0,U,69173,999,446,.52518E-3,.28889E-3,0
STARLINK-37333,2026-111AC,2026-06-18T20:00:01.999008,15.49270017,.0000574,53.1604,144.3505,98.5164,56.3643,0,U,69174,999,581,.13406E-2,.74722E-3,0
STARLINK-37385,2026-111AD,2026-06-18T07:45:30.171168,15.49327202,.0000664,53.1603,147.9009,91.4846,268.6239,0,U,69175,999,441,.44406E-3,.24341E-3,0
STARLINK-37414,2026-111AE,2026-06-18T20:00:01.999008,15.49273774,.0001512,53.1602,144.1558,111.2950,138.7946,0,U,69176,999,581,.1684E-2,.94229E-3,0
STRIX-7,2026-112A,2026-06-18T18:27:38.188800,15.01440512,.0023132,44.9069,184.1402,56.2604,304.0467,0,U,69177,999,411,.13301E-3,.1518E-4,0
SHENZHOU-23 (SZ-23),2026-113A,2026-06-18T13:50:23.178624,15.60863218,.0007383,41.4698,313.5456,89.2734,270.8951,0,U,69180,999,29364,.21350369E-3,.18077E-3,0
STARLINK-37380,2026-114A,2026-06-18T14:42:29.928960,15.78095526,.000089,53.1571,195.3937,47.2064,312.9033,0,U,69182,999,499,.94269E-3,.166539E-2,0
STARLINK-37089,2026-114B,2026-06-18T14:41:09.304800,15.78087761,.0000998,53.1579,195.3878,50.1717,309.9392,0,U,69183,999,499,.88384E-3,.155849E-2,0
STARLINK-37428,2026-114C,2026-06-18T19:12:43.435872,15.78170680,.0000751,53.1571,194.4305,66.8111,293.2990,0,U,69184,999,502,.18119E-2,.328013E-2,0
STARLINK-37237,2026-114D,2026-06-18T11:32:45.940992,15.78073057,.000094,53.1574,195.9922,77.1130,282.9997,0,U,69185,999,497,.78929E-3,.138732E-2,0
